STARLINK-30893          
1 58724U 24002V   26068.76494813  .00001998  00000+0  79607-4 0  9997
2 58724  53.1602 229.8133 0001213  93.2209 266.8931 15.30184299122018
NUSHSAT1                
1 63211U 25052B   26068.64700493  .00023034  00000+0  74857-3 0  9997
2 63211  97.4095 325.7239 0005501  84.7512 275.4357 15.31903202 54882
